      2.10          N: GNSS NAV DATA                        RINEX VERSION / TYPE
fic2rin                                 04/02/2023 00:17:52 PGM / RUN BY / DATE
                                                            END OF HEADER
26 23  4  1 16  0  0.0  .241932459176D-03 -.113686837722D-12  .000000000000D+00
     .760000000000D+02  .136875000000D+02  .557701801947D-08  .289493887081D+01
     .627711415291D-06  .788058282342D-02  .483728945255D-05  .515365769386D+04
     .576000000000D+06 -.931322574615D-07  .121518505647D+01 -.800937414169D-07
     .934212874493D+00  .273281250000D+03  .462391616855D+00 -.841785063727D-08
    -.800033324599D-10  .100000000000D+01  .225500000000D+04  .000000000000D+00
     .240000000000D+01  .000000000000D+00  .698491930962D-08  .760000000000D+02
     .568800000000D+06  .400000000000D+01
17 23  4  1 16  0  0.0  .708488747478D-03  .193267624127D-11  .000000000000D+00
     .920000000000D+02  .218750000000D+00  .408767026787D-08  .104658342453D+01
    -.217929482460D-06  .135236192727D-01  .928714871407D-05  .515374301338D+04
     .576000000000D+06 -.135973095894D-06  .239105608403D+01 -.253319740295D-06
     .974924290059D+00  .212625000000D+03 -.141278533668D+01 -.793925927344D-08
    -.415731602604D-09  .100000000000D+01  .225500000000D+04  .000000000000D+00
     .240000000000D+01  .000000000000D+00 -.111758708954D-07  .920000000000D+02
     .568800000000D+06  .400000000000D+01
25 23  4  1 16  0  0.0  .432297587395D-03  .295585778076D-11  .000000000000D+00
     .480000000000D+02  .118750000000D+02  .512449917025D-08 -.264329267820D+01
     .618398189545D-06  .111713171937D-01  .490620732307D-05  .515374903297D+04
     .576000000000D+06  .230967998505D-06  .126985507458D+01 -.987201929092D-07
     .953390557252D+00  .279187500000D+03  .104447236791D+01 -.820284168128D-08
    -.496449250533D-10  .100000000000D+01  .225500000000D+04  .000000000000D+00
     .240000000000D+01  .000000000000D+00  .558793544769D-08  .480000000000D+02
     .568800000000D+06  .400000000000D+01
23 23  4  1 16  0  0.0  .140508636832D-04  .238742359215D-11  .000000000000D+00
     .540000000000D+02 -.317187500000D+02  .434910972931D-08 -.202417779609D+01
    -.161118805408D-05  .303601869382D-02  .294484198093D-05  .515364911079D+04
     .576000000000D+06 -.707805156708D-07 -.188929148268D+01  .428408384323D-07
     .972746205458D+00  .330750000000D+03 -.308714163431D+01 -.817641200895D-08
     .839320675361D-10  .100000000000D+01  .225500000000D+04  .000000000000D+00
     .240000000000D+01  .000000000000D+00 -.838190317154D-08  .310000000000D+03
     .568800000000D+06  .400000000000D+01
28 23  4  1 16  0  0.0  .568036921322D-04  .784439180279D-11  .000000000000D+00
     .640000000000D+02  .249062500000D+02  .456340436982D-08  .297443450925D+01
     .108778476715D-05  .870779738761D-03  .949762761593D-05  .515365342903D+04
     .576000000000D+06  .800937414169D-07  .199035429185D+00 -.149011611938D-07
     .962037459327D+00  .195718750000D+03  .170631936214D+01 -.793211611876D-08
     .431803700643D-09  .100000000000D+01  .225500000000D+04  .000000000000D+00
     .240000000000D+01  .000000000000D+00 -.139698386192D-08  .832000000000D+03
     .568800000000D+06  .400000000000D+01
14 23  4  1 16  0  0.0  .123628415167D-04  .110276232590D-10  .000000000000D+00
     .166000000000D+03  .709375000000D+01  .519200198201D-08 -.246255796797D+01
     .370666384697D-06  .289081933443D-02  .530667603016D-05  .515366761017D+04
     .576000000000D+06 -.838190317154D-07  .131375261308D+01 -.838190317154D-07
     .949059559020D+00  .272500000000D+03 -.306882271226D+01 -.836284834620D-08
    -.164649715464D-09  .100000000000D+01  .225500000000D+04  .000000000000D+00
     .240000000000D+01  .000000000000D+00 -.791624188423D-08  .678000000000D+03
     .568800000000D+06  .400000000000D+01
22 23  4  1 16  0  0.0  .456245150417D-03  .704858393874D-11  .000000000000D+00
     .830000000000D+02 -.830625000000D+02  .434910972931D-08  .867879348464D+00
    -.432692468166D-05  .141866703052D-01  .998377799988D-05  .515361934280D+04
     .576000000000D+06 -.221654772758D-06 -.729669864490D+00 -.111758708954D-07
     .962517217460D+00  .189000000000D+03 -.181535805041D+01 -.814605360154D-08
    -.557166065346D-10  .100000000000D+01  .225500000000D+04  .000000000000D+00
     .340000000000D+01  .630000000000D+02 -.791624188423D-08  .830000000000D+02
     .568800000000D+06  .400000000000D+01
15 23  4  1 15 59 44.0  .267671421170D-04  .341060513165D-11  .000000000000D+00
     .120000000000D+02 -.865312500000D+02  .508735476589D-08  .129169899576D+00
    -.448897480965D-05  .147948298836D-01  .861287117004D-05  .515370414543D+04
     .575984000000D+06 -.217929482460D-06 -.951333036120D+00  .156462192535D-06
     .931965206195D+00  .200343750000D+03  .118578344594D+01 -.858392898367D-08
    -.942896418278D-10  .100000000000D+01  .225500000000D+04  .000000000000D+00
     .240000000000D+01  .000000000000D+00 -.107102096081D-07  .120000000000D+02
     .573780000000D+06  .400000000000D+01
3  23  4  1 15 59 44.0 -.338629353791D-03  .795807864051D-11  .000000000000D+00
     .970000000000D+02 -.309062500000D+02  .420088926961D-08 -.226361804247D+01
    -.158511102200D-05  .461361289490D-02  .302307307720D-05  .515369340706D+04
     .575984000000D+06  .111758708954D-07 -.185969637637D+01 -.949949026108D-07
     .977863273462D+00  .330531250000D+03  .100428434786D+01 -.800890503161D-08
     .410731394325D-10  .100000000000D+01  .225500000000D+04  .000000000000D+00
     .240000000000D+01  .000000000000D+00  .186264514923D-08  .970000000000D+02
     .573810000000D+06  .400000000000D+01
3  23  4  1 17 59 44.0 -.338572077453D-03  .795807864051D-11  .000000000000D+00
     .980000000000D+02 -.280625000000D+02  .434053794369D-08 -.121352098276D+01
    -.149942934513D-05  .461388123222D-02  .284984707832D-05  .515369271660D+04
     .583184000000D+06  .141561031342D-06 -.185975371105D+01  .137835741043D-06
     .977862329880D+00  .333468750000D+03  .100435422853D+01 -.821141346690D-08
    -.992898501065D-10  .100000000000D+01  .225500000000D+04  .000000000000D+00
     .240000000000D+01  .000000000000D+00  .186264514923D-08  .980000000000D+02
     .576000000000D+06  .400000000000D+01
15 23  4  1 17 59 44.0  .267918221653D-04  .341060513165D-11  .000000000000D+00
     .800000000000D+02 -.839375000000D+02  .514985736937D-08  .117937683321D+01
    -.445358455181D-05  .147938595619D-01  .834651291370D-05  .515370199013D+04
     .583184000000D+06 -.245869159698D-06 -.951394436254D+00 -.502914190292D-07
     .931963974417D+00  .208156250000D+03  .118574375551D+01 -.856392815055D-08
    -.188936441390D-09  .100000000000D+01  .225500000000D+04  .000000000000D+00
     .240000000000D+01  .000000000000D+00 -.107102096081D-07  .800000000000D+02
     .576000000000D+06  .400000000000D+01
2  23  4  1 18  0  0.0 -.609852839261D-03  .295585778076D-11  .000000000000D+00
     .790000000000D+02  .714062500000D+02  .436053877680D-08 -.107517814210D+01
     .381283462048D-05  .198067516321D-01  .791996717453D-05  .515368449974D+04
     .583200000000D+06 -.335276126862D-06 -.298825986630D+01  .838190317154D-07
     .967576337815D+00  .235406250000D+03 -.131333825763D+01 -.832534678411D-08
     .171435712414D-09  .100000000000D+01  .225500000000D+04  .000000000000D+00
     .240000000000D+01  .000000000000D+00 -.176951289177D-07  .790000000000D+02
     .576000000000D+06  .400000000000D+01
1  23  4  1 18  0  0.0  .197151675820D-03 -.352429196937D-11  .000000000000D+00
     .830000000000D+02  .717812500000D+02  .389694803781D-08 -.641490031263D-01
     .389665365219D-05  .126084536314D-01  .722520053387D-05  .515364880562D+04
     .583200000000D+06 -.689178705215D-07 -.289058593758D+01  .139698386192D-06
     .989993446389D+00  .252843750000D+03  .943995375505D+00 -.802319134098D-08
     .125719522437D-09  .100000000000D+01  .225500000000D+04  .000000000000D+00
     .240000000000D+01  .000000000000D+00  .465661287308D-08  .830000000000D+02
     .576000000000D+06  .400000000000D+01
5  23  4  1 18  0  0.0 -.121744815260D-03 -.147792889038D-11  .000000000000D+00
     .290000000000D+02 -.241250000000D+02  .455697553061D-08  .253649905276D+01
    -.132247805595D-05  .582259055227D-02  .296160578728D-05  .515363904762D+04
     .583200000000D+06  .819563865662D-07 -.190561001932D+01 -.651925802231D-07
     .964912192832D+00  .325062500000D+03  .112900610311D+01 -.820855620503D-08
     .714315468392D-12  .100000000000D+01  .225500000000D+04  .000000000000D+00
     .240000000000D+01  .000000000000D+00 -.111758708954D-07  .290000000000D+02
     .576000000000D+06  .400000000000D+01
6  23  4  1 18  0  0.0  .584987923503D-03  .193267624127D-11  .000000000000D+00
     .600000000000D+02  .628437500000D+02  .373051253368D-08  .134157682195D+00
     .325404107571D-05  .289105391130D-02  .743009150028D-05  .515364024544D+04
     .583200000000D+06  .931322574615D-08 -.289889807865D+01 -.242143869400D-07
     .989228470434D+00  .253031250000D+03 -.779605082412D+00 -.778746723641D-08
     .100361323309D-09  .100000000000D+01  .225500000000D+04  .000000000000D+00
     .240000000000D+01  .000000000000D+00  .372529029846D-08  .600000000000D+02
     .576000000000D+06  .400000000000D+01
4  23  4  1 18  0  0.0  .659283250570D-05  .898126018001D-11  .000000000000D+00
     .143000000000D+03 -.814687500000D+02  .426160608443D-08  .166066219359D+01
    -.417791306973D-05  .234134716447D-02  .931881368160D-05  .515369664764D+04
     .583200000000D+06 -.502914190292D-07 -.778225663308D+00  .558793544769D-08
     .962576493438D+00  .201593750000D+03 -.299345613376D+01 -.786247036059D-08
    -.878608026122D-10  .100000000000D+01  .225500000000D+04  .000000000000D+00
     .240000000000D+01  .000000000000D+00 -.465661287308D-08  .143000000000D+03
     .576000000000D+06  .400000000000D+01
